GOES 3                  
1 10953U 78062A   13206.40882386 -.00000140  00000-0  10000-3 0  2850
2 10953  14.4991 346.4383 0007315 100.9939 259.1276  1.00279886 81705